<?xml version="1.0" encoding="UTF-8"?>
<kml xmlns="http://www.opengis.net/kml/2.2"><Document><name>Zonas pastorales ajustadas a las calles - Parroquia San Benito de Palermo</name><Placemark><name>Zona 1 · San José</name><Style><LineStyle><color>ff13458b</color><width>3</width></LineStyle><PolyStyle><color>5913458b</color></PolyStyle></Style><Polygon><outerBoundaryIs><LinearRing><coordinates>-71.605053,10.6623396,0 -71.6046843,10.6623918,0 -71.6038275,10.6625648,0 -71.6033989,10.6626406,0 -71.6029698,10.6626735,0 -71.6026734,10.6626839,0 -71.6025697,10.6626645,0 -71.6025081,10.6625728,0 -71.6024054,10.6625196,0 -71.6023256,10.662497,0 -71.6022565,10.6626943,0 -71.6021255,10.6628901,0 -71.6020042,10.6629014,0 -71.6014844,10.6630522,0 -71.6010426,10.663127,0 -71.6008701,10.6630738,0 -71.6007178,10.6629133,0 -71.6003393,10.6626996,0 -71.599833,10.6625719,0 -71.5988834,10.6621985,0 -71.5984514,10.6620063,0 -71.5984229,10.6619714,0 -71.5984045,10.6610016,0 -71.5986785,10.6609965,0 -71.5984455,10.6608538,0 -71.5985202,10.6607345,0 -71.5985293,10.6607012,0 -71.5986376,10.6594208,0 -71.5989107,10.6594434,0 -71.5989481,10.6592285,0 -71.5990157,10.6590866,0 -71.5990128,10.6589665,0 -71.5991097,10.6588616,0 -71.599177,10.6587077,0 -71.599175,10.6586236,0 -71.5992574,10.6585062,0 -71.599556,10.6585158,0 -71.5997959,10.6584516,0 -71.6006107,10.6582726,0 -71.6008065,10.6582194,0 -71.600877,10.6582238,0 -71.601157,10.6581565,0 -71.6013679,10.6581452,0 -71.6015792,10.6581463,0 -71.6019042,10.6581931,0 -71.6022872,10.6582877,0 -71.6028022,10.6584364,0 -71.6030587,10.6584687,0 -71.6032859,10.6584641,0 -71.6035822,10.6583776,0 -71.6040349,10.6584276,0 -71.6040437,10.658341,0 -71.6040647,10.6583408,0 -71.6040854,10.6585147,0 -71.6046389,10.6584502,0 -71.6051429,10.6583611,0 -71.6057395,10.6582461,0 -71.6057411,10.6583228,0 -71.606214,10.6583134,0 -71.6062085,10.6580424,0 -71.6063002,10.658041,0 -71.6063331,10.6592666,0 -71.6063499,10.6595531,0 -71.6065009,10.6601794,0 -71.6066927,10.6610547,0 -71.6065706,10.6610653,0 -71.6068103,10.6620507,0 -71.6056708,10.6622804,0 -71.6050538,10.6623925,0 -71.605053,10.6623396,0</coordinates></LinearRing></outerBoundaryIs></Polygon></Placemark><Placemark><name>Zona 2 · Corazón de Jesús</name><Style><LineStyle><color>ff4639e6</color><width>3</width></LineStyle><PolyStyle><color>594639e6</color></PolyStyle></Style><Polygon><outerBoundaryIs><LinearRing><coordinates>-71.6005253,10.6560861,0 -71.6009323,10.6560993,0 -71.6013878,10.656138,0 -71.6015291,10.6561066,0 -71.6016867,10.6561597,0 -71.6019284,10.6561675,0 -71.6026239,10.656142,0 -71.6031682,10.6561596,0 -71.6034422,10.6561535,0 -71.6034432,10.6561981,0 -71.604089,10.6561731,0 -71.6040982,10.6561114,0 -71.6043693,10.6561507,0 -71.6060635,10.6562053,0 -71.6061926,10.6562574,0 -71.606214,10.6583134,0 -71.6057411,10.6583228,0 -71.6057395,10.6582461,0 -71.6051429,10.6583611,0 -71.6046389,10.6584502,0 -71.6040854,10.6585147,0 -71.6040647,10.6583408,0 -71.6040437,10.658341,0 -71.6040349,10.6584276,0 -71.6035822,10.6583776,0 -71.6032859,10.6584641,0 -71.6030587,10.6584687,0 -71.6028022,10.6584364,0 -71.6022872,10.6582877,0 -71.6019042,10.6581931,0 -71.6015792,10.6581463,0 -71.6013679,10.6581452,0 -71.601157,10.6581565,0 -71.600877,10.6582238,0 -71.6008062,10.6582073,0 -71.6006104,10.6582605,0 -71.6001044,10.6582969,0 -71.6000066,10.6583503,0 -71.5997956,10.6584395,0 -71.5995557,10.6585038,0 -71.5992713,10.6584946,0 -71.5991844,10.6582205,0 -71.5991477,10.6580824,0 -71.5991381,10.657686,0 -71.5991064,10.6575529,0 -71.5991058,10.6575288,0 -71.5991264,10.6572054,0 -71.5990657,10.6570473,0 -71.599086,10.6567118,0 -71.5990308,10.6561938,0 -71.5990578,10.6561347,0 -71.598885,10.656033,0 -71.5988991,10.6560335,0 -71.5990433,10.6561222,0 -71.5991147,10.6561365,0 -71.5996532,10.6560819,0 -71.5999942,10.6560809,0 -71.6000781,10.6560599,0 -71.6001883,10.6565062,0 -71.6002051,10.6565043,0 -71.6002081,10.6562991,0 -71.600539,10.6563039,0 -71.6005253,10.6560861,0</coordinates></LinearRing></outerBoundaryIs></Polygon></Placemark><Placemark><name>Zona 3 · San José Gregorio Hernández</name><Style><LineStyle><color>ff20a0f4</color><width>3</width></LineStyle><PolyStyle><color>5920a0f4</color></PolyStyle></Style><Polygon><outerBoundaryIs><LinearRing><coordinates>-71.6061821,10.6552367,0 -71.6061926,10.6562574,0 -71.6060635,10.6562053,0 -71.6043693,10.6561507,0 -71.6040982,10.6561114,0 -71.604089,10.6561731,0 -71.6034432,10.6561981,0 -71.6034422,10.6561535,0 -71.6031682,10.6561596,0 -71.6026239,10.656142,0 -71.6019284,10.6561675,0 -71.6016867,10.6561597,0 -71.6015291,10.6561066,0 -71.6013878,10.656138,0 -71.6009323,10.6560993,0 -71.6005253,10.6560861,0 -71.6005245,10.6560741,0 -71.600932,10.6560873,0 -71.6013875,10.656126,0 -71.6015004,10.6560936,0 -71.6015395,10.6553626,0 -71.6015879,10.655016,0 -71.6015798,10.6546796,0 -71.6016181,10.6545008,0 -71.6016587,10.654418,0 -71.6018946,10.6541856,0 -71.6019067,10.6541019,0 -71.6020454,10.6539623,0 -71.6020852,10.6538436,0 -71.602169,10.6537863,0 -71.6023725,10.6534531,0 -71.6022332,10.6533641,0 -71.6023802,10.653139,0 -71.6023732,10.6531357,0 -71.6025328,10.6528106,0 -71.6033419,10.6531886,0 -71.6043151,10.6536308,0 -71.605422,10.6541482,0 -71.6062073,10.6542231,0 -71.6061685,10.6546214,0 -71.6062099,10.6546253,0 -71.6061821,10.6552367,0</coordinates></LinearRing></outerBoundaryIs></Polygon></Placemark><Placemark><name>Zona 4 · Divina Pastora</name><Style><LineStyle><color>ffb040e0</color><width>3</width></LineStyle><PolyStyle><color>59b040e0</color></PolyStyle></Style><Polygon><outerBoundaryIs><LinearRing><coordinates>-71.6023802,10.653139,0 -71.6022332,10.6533641,0 -71.6023725,10.6534531,0 -71.602169,10.6537863,0 -71.6020852,10.6538436,0 -71.6020454,10.6539623,0 -71.6019067,10.6541019,0 -71.6018946,10.6541856,0 -71.6016587,10.654418,0 -71.6016181,10.6545008,0 -71.6015798,10.6546796,0 -71.6015879,10.655016,0 -71.6015395,10.6553626,0 -71.6015004,10.6560936,0 -71.6013875,10.656126,0 -71.600932,10.6560873,0 -71.6005245,10.6560741,0 -71.600539,10.6563039,0 -71.6002081,10.6562991,0 -71.6002051,10.6565043,0 -71.6001883,10.6565062,0 -71.6000627,10.6559975,0 -71.6003225,10.6559114,0 -71.6001077,10.6552772,0 -71.5998479,10.6553633,0 -71.5998116,10.6551735,0 -71.5997399,10.6549682,0 -71.5996412,10.6544128,0 -71.599649,10.6541489,0 -71.5996185,10.6540639,0 -71.5996136,10.6538597,0 -71.5996359,10.6536083,0 -71.5996752,10.6535641,0 -71.5997008,10.6533683,0 -71.5996948,10.6532767,0 -71.5996307,10.6528457,0 -71.5999043,10.6528303,0 -71.5998985,10.6527304,0 -71.5999097,10.6526639,0 -71.599985,10.6524947,0 -71.6000464,10.6525235,0 -71.6004568,10.6526808,0 -71.6005558,10.652428,0 -71.6005934,10.6524394,0 -71.6007008,10.652094,0 -71.6015081,10.6523428,0 -71.6022741,10.6526864,0 -71.6025328,10.6528106,0 -71.6023732,10.6531357,0 -71.6023802,10.653139,0</coordinates></LinearRing></outerBoundaryIs></Polygon></Placemark><Placemark><name>Zona 5 · Virgen de Lourdes</name><Style><LineStyle><color>ff1ee6f2</color><width>3</width></LineStyle><PolyStyle><color>591ee6f2</color></PolyStyle></Style><Polygon><outerBoundaryIs><LinearRing><coordinates>-71.5959809,10.6583916,0 -71.5960146,10.6583406,0 -71.5963407,10.6583278,0 -71.5967687,10.6584016,0 -71.5969265,10.6584668,0 -71.5978391,10.6586044,0 -71.598906,10.6586629,0 -71.5990186,10.6586185,0 -71.5991466,10.6586226,0 -71.5991498,10.6587548,0 -71.5990128,10.6589665,0 -71.5990157,10.6590866,0 -71.5989481,10.6592285,0 -71.5989107,10.6594434,0 -71.5986376,10.6594208,0 -71.5985293,10.6607012,0 -71.5985202,10.6607345,0 -71.5984455,10.6608538,0 -71.5986785,10.6609965,0 -71.5984045,10.6610016,0 -71.5984229,10.6619714,0 -71.5982333,10.6617388,0 -71.5979951,10.6615784,0 -71.5977478,10.6615574,0 -71.5974273,10.6616866,0 -71.5971613,10.66188,0 -71.596574,10.662149,0 -71.5961989,10.6622032,0 -71.5957691,10.6621825,0 -71.5953922,10.6620975,0 -71.595014,10.6619052,0 -71.5947792,10.6617507,0 -71.5946724,10.6620457,0 -71.5945865,10.6623191,0 -71.5945051,10.6622884,0 -71.5949339,10.6611195,0 -71.5950818,10.6607312,0 -71.5945969,10.6604923,0 -71.5953075,10.6590747,0 -71.5954809,10.6586121,0 -71.595516,10.6583012,0 -71.595514,10.658219,0 -71.5955565,10.6582348,0 -71.5955767,10.6581974,0 -71.5958594,10.6583467,0 -71.5959809,10.6583916,0</coordinates></LinearRing></outerBoundaryIs></Polygon></Placemark><Placemark><name>Zona 6 · San Benito de Palermo</name><Style><LineStyle><color>ffe6962a</color><width>3</width></LineStyle><PolyStyle><color>59e6962a</color></PolyStyle></Style><Polygon><outerBoundaryIs><LinearRing><coordinates>-71.6002412,10.6504532,0 -71.6003912,10.6504956,0 -71.6005678,10.6505646,0 -71.6007015,10.6506335,0 -71.6007977,10.6506971,0 -71.6008188,10.6507501,0 -71.6007966,10.6508005,0 -71.6008589,10.6508436,0 -71.6005994,10.6513329,0 -71.600546,10.651491,0 -71.6004863,10.6515969,0 -71.6005297,10.6517751,0 -71.6005696,10.651854,0 -71.6005676,10.652045,0 -71.6007008,10.652094,0 -71.6005934,10.6524394,0 -71.6005558,10.652428,0 -71.6004568,10.6526808,0 -71.6000464,10.6525235,0 -71.5999468,10.6524767,0 -71.5997474,10.652356,0 -71.5998355,10.652158,0 -71.5998223,10.6521501,0 -71.5996863,10.6523159,0 -71.5990764,10.6518267,0 -71.5989484,10.652046,0 -71.5989094,10.6520237,0 -71.5987771,10.651979,0 -71.5988542,10.6517554,0 -71.5988439,10.6517498,0 -71.5986962,10.6519355,0 -71.5985844,10.6518485,0 -71.5982963,10.6517406,0 -71.5979398,10.6515677,0 -71.5980331,10.6513794,0 -71.5979176,10.6513366,0 -71.5979431,10.6512505,0 -71.5980353,10.6510613,0 -71.5981212,10.6509242,0 -71.5981755,10.651002,0 -71.5983321,10.6507623,0 -71.5983806,10.6507933,0 -71.5994826,10.6497266,0 -71.5996123,10.6497857,0 -71.599719,10.6498863,0 -71.5998149,10.6500029,0 -71.5999745,10.6502148,0 -71.600092,10.6502943,0 -71.6001988,10.650379,0 -71.6002412,10.6504532,0</coordinates></LinearRing></outerBoundaryIs></Polygon></Placemark><Placemark><name>Zona 7 · Divina Misericordia</name><Style><LineStyle><color>ff3cdc96</color><width>3</width></LineStyle><PolyStyle><color>593cdc96</color></PolyStyle></Style><Polygon><outerBoundaryIs><LinearRing><coordinates>-71.5999468,10.6524767,0 -71.599985,10.6524947,0 -71.5999097,10.6526639,0 -71.5998985,10.6527304,0 -71.5999043,10.6528303,0 -71.5996307,10.6528457,0 -71.5996948,10.6532767,0 -71.5997008,10.6533683,0 -71.5996752,10.6535641,0 -71.5996359,10.6536083,0 -71.5996136,10.6538597,0 -71.5996185,10.6540639,0 -71.599649,10.6541489,0 -71.5996412,10.6544128,0 -71.5997399,10.6549682,0 -71.5998116,10.6551735,0 -71.5998479,10.6553633,0 -71.6001077,10.6552772,0 -71.6003225,10.6559114,0 -71.6000627,10.6559975,0 -71.6000781,10.6560599,0 -71.5999942,10.6560809,0 -71.5996532,10.6560819,0 -71.5991147,10.6561365,0 -71.5990433,10.6561222,0 -71.5988991,10.6560335,0 -71.598743,10.6560405,0 -71.5984427,10.6559587,0 -71.5980123,10.6557887,0 -71.5977979,10.6557338,0 -71.5976398,10.6556566,0 -71.5972184,10.6555419,0 -71.5972218,10.6555157,0 -71.597114,10.6555033,0 -71.5970092,10.6554321,0 -71.5970606,10.6552057,0 -71.5971222,10.653647,0 -71.5978616,10.6515254,0 -71.5979176,10.6513366,0 -71.5980331,10.6513794,0 -71.5979398,10.6515677,0 -71.5982963,10.6517406,0 -71.5985844,10.6518485,0 -71.5986962,10.6519355,0 -71.5988439,10.6517498,0 -71.5988542,10.6517554,0 -71.5987771,10.651979,0 -71.5989094,10.6520237,0 -71.5989484,10.652046,0 -71.5990764,10.6518267,0 -71.5996863,10.6523159,0 -71.5998223,10.6521501,0 -71.5998355,10.652158,0 -71.5997474,10.652356,0 -71.5999468,10.6524767,0</coordinates></LinearRing></outerBoundaryIs></Polygon></Placemark><Placemark><name>Zona 8 · Nuestra Señora de Coromoto</name><Style><LineStyle><color>ff3c8c2a</color><width>3</width></LineStyle><PolyStyle><color>593c8c2a</color></PolyStyle></Style><Polygon><outerBoundaryIs><LinearRing><coordinates>-71.6006107,10.6582726,0 -71.5997959,10.6584516,0 -71.599556,10.6585158,0 -71.5992574,10.6585062,0 -71.599175,10.6586236,0 -71.599177,10.6587077,0 -71.5991097,10.6588616,0 -71.5990128,10.6589665,0 -71.5991498,10.6587548,0 -71.5991466,10.6586226,0 -71.5990186,10.6586185,0 -71.598906,10.6586629,0 -71.5978391,10.6586044,0 -71.5969265,10.6584668,0 -71.5967687,10.6584016,0 -71.5963407,10.6583278,0 -71.5960146,10.6583406,0 -71.5959809,10.6583916,0 -71.5958594,10.6583467,0 -71.5955767,10.6581974,0 -71.5955565,10.6582348,0 -71.595514,10.658219,0 -71.5955105,10.6580728,0 -71.5956126,10.6575959,0 -71.595722,10.6574194,0 -71.5963727,10.6567201,0 -71.5965535,10.6565579,0 -71.5967458,10.656288,0 -71.5967867,10.6562173,0 -71.5970092,10.6554321,0 -71.597114,10.6555033,0 -71.5972218,10.6555157,0 -71.5972184,10.6555419,0 -71.5976398,10.6556566,0 -71.5977979,10.6557338,0 -71.5980123,10.6557887,0 -71.5984427,10.6559587,0 -71.598743,10.6560405,0 -71.5988849,10.656033,0 -71.5990578,10.6561347,0 -71.5990308,10.6561938,0 -71.599086,10.6567118,0 -71.5990657,10.6570473,0 -71.5991264,10.6572054,0 -71.5991058,10.6575288,0 -71.5991064,10.6575529,0 -71.5991381,10.657686,0 -71.5991477,10.6580824,0 -71.5991844,10.6582205,0 -71.5992713,10.6584946,0 -71.5995557,10.6585038,0 -71.5997956,10.6584395,0 -71.6000066,10.6583503,0 -71.6001044,10.6582969,0 -71.6006104,10.6582605,0 -71.6008062,10.6582073,0 -71.600877,10.6582238,0 -71.6008065,10.6582194,0 -71.6006107,10.6582726,0</coordinates></LinearRing></outerBoundaryIs></Polygon></Placemark></Document></kml>
