<?xml version="1.0" encoding="UTF-8"?>
<kml xmlns="http://www.opengis.net/kml/2.2"><Document>
<name>Zonas pastorales - Parroquia San Benito de Palermo</name>
<Style id="z1"><LineStyle><color>ff13458b</color><width>3</width></LineStyle><PolyStyle><color>7313458b</color></PolyStyle></Style>
<Style id="z2"><LineStyle><color>ff4639e6</color><width>3</width></LineStyle><PolyStyle><color>734639e6</color></PolyStyle></Style>
<Style id="z3"><LineStyle><color>ff20a0f4</color><width>3</width></LineStyle><PolyStyle><color>7320a0f4</color></PolyStyle></Style>
<Style id="z4"><LineStyle><color>ffb040e0</color><width>3</width></LineStyle><PolyStyle><color>73b040e0</color></PolyStyle></Style>
<Style id="z5"><LineStyle><color>ff1ee6f2</color><width>3</width></LineStyle><PolyStyle><color>731ee6f2</color></PolyStyle></Style>
<Style id="z6"><LineStyle><color>ffe6962a</color><width>3</width></LineStyle><PolyStyle><color>73e6962a</color></PolyStyle></Style>
<Style id="z7"><LineStyle><color>ff3cdc96</color><width>3</width></LineStyle><PolyStyle><color>733cdc96</color></PolyStyle></Style>
<Style id="z8"><LineStyle><color>ff3c8c2a</color><width>3</width></LineStyle><PolyStyle><color>733c8c2a</color></PolyStyle></Style>
<Style id="tem"><IconStyle><scale>1.2</scale></IconStyle></Style>
<Placemark><name>Zona 1</name><description></description><styleUrl>#z1</styleUrl><Polygon><tessellate>1</tessellate><outerBoundaryIs><LinearRing><coordinates>-71.6064970,10.6612374,0 -71.6064842,10.6610577,0 -71.6064445,10.6596151,0 -71.6062701,10.6588651,0 -71.6062398,10.6584156,0 -71.6060694,10.6584221,0 -71.6058837,10.6583800,0 -71.6054569,10.6583542,0 -71.6048911,10.6584560,0 -71.6046491,10.6584361,0 -71.6043517,10.6584745,0 -71.6035825,10.6583896,0 -71.6032720,10.6584756,0 -71.6030590,10.6584807,0 -71.6028167,10.6584489,0 -71.6022875,10.6582997,0 -71.6019044,10.6582052,0 -71.6015090,10.6581541,0 -71.6011573,10.6581686,0 -71.6009475,10.6582282,0 -71.6008065,10.6582194,0 -71.6006107,10.6582726,0 -71.5997959,10.6584516,0 -71.5995560,10.6585158,0 -71.5992574,10.6585062,0 -71.5991750,10.6586236,0 -71.5991770,10.6587077,0 -71.5991097,10.6588616,0 -71.5990128,10.6589665,0 -71.5990300,10.6590871,0 -71.5989624,10.6592289,0 -71.5989107,10.6594434,0 -71.5988003,10.6607484,0 -71.5987742,10.6608436,0 -71.5986785,10.6609965,0 -71.5986997,10.6621131,0 -71.5988834,10.6621985,0 -71.5994229,10.6624119,0 -71.5998330,10.6625719,0 -71.6003393,10.6626996,0 -71.6007178,10.6629133,0 -71.6008701,10.6630738,0 -71.6010426,10.6631270,0 -71.6014712,10.6630513,0 -71.6018457,10.6629434,0 -71.6022201,10.6628356,0 -71.6026478,10.6626848,0 -71.6029698,10.6626735,0 -71.6033989,10.6626406,0 -71.6038275,10.6625648,0 -71.6042559,10.6624783,0 -71.6046843,10.6623918,0 -71.6052203,10.6623159,0 -71.6057561,10.6622292,0 -71.6061848,10.6621641,0 -71.6065706,10.6620991,0 -71.6064970,10.6612374,0</coordinates></LinearRing></outerBoundaryIs></Polygon></Placemark>
<Placemark><name>1</name><Point><coordinates>-71.6025647,10.6605181,0</coordinates></Point></Placemark>
<Placemark><name>Zona 2</name><description></description><styleUrl>#z2</styleUrl><Polygon><tessellate>1</tessellate><outerBoundaryIs><LinearRing><coordinates>-71.5995557,10.6585038,0 -71.5997956,10.6584395,0 -71.6000066,10.6583503,0 -71.6001044,10.6582969,0 -71.6006104,10.6582605,0 -71.6008062,10.6582073,0 -71.6008770,10.6582238,0 -71.6011570,10.6581565,0 -71.6013679,10.6581452,0 -71.6015792,10.6581463,0 -71.6019042,10.6581931,0 -71.6022872,10.6582877,0 -71.6028022,10.6584364,0 -71.6030587,10.6584687,0 -71.6032859,10.6584641,0 -71.6035822,10.6583776,0 -71.6043514,10.6584625,0 -71.6046488,10.6584241,0 -71.6048908,10.6584440,0 -71.6054566,10.6583422,0 -71.6058834,10.6583680,0 -71.6060691,10.6584100,0 -71.6062395,10.6584036,0 -71.6061926,10.6562574,0 -71.6060635,10.6562053,0 -71.6043716,10.6561505,0 -71.6041304,10.6561667,0 -71.6036894,10.6561405,0 -71.6032353,10.6561618,0 -71.6026239,10.6561420,0 -71.6019284,10.6561675,0 -71.6016867,10.6561597,0 -71.6015291,10.6561066,0 -71.6013878,10.6561380,0 -71.6009323,10.6560993,0 -71.6000650,10.6560712,0 -71.5999945,10.6560930,0 -71.5996535,10.6560939,0 -71.5990723,10.6561472,0 -71.5990451,10.6561943,0 -71.5990500,10.6563985,0 -71.5991026,10.6568084,0 -71.5990643,10.6569873,0 -71.5991406,10.6572058,0 -71.5991334,10.6574937,0 -71.5991058,10.6575288,0 -71.5991351,10.6575658,0 -71.5991523,10.6576864,0 -71.5991790,10.6582035,0 -71.5992713,10.6584946,0 -71.5995557,10.6585038,0</coordinates></LinearRing></outerBoundaryIs></Polygon></Placemark>
<Placemark><name>2</name><Point><coordinates>-71.6026874,10.6573866,0</coordinates></Point></Placemark>
<Placemark><name>Zona 3</name><description></description><styleUrl>#z3</styleUrl><Polygon><tessellate>1</tessellate><outerBoundaryIs><LinearRing><coordinates>-71.6016864,10.6561477,0 -71.6026236,10.6561300,0 -71.6032350,10.6561498,0 -71.6036891,10.6561284,0 -71.6041301,10.6561547,0 -71.6043713,10.6561385,0 -71.6060632,10.6561932,0 -71.6061923,10.6562454,0 -71.6061821,10.6552367,0 -71.6062099,10.6546253,0 -71.6056261,10.6545704,0 -71.6053260,10.6545007,0 -71.6024687,10.6532557,0 -71.6024565,10.6533394,0 -71.6021832,10.6537867,0 -71.6020994,10.6538440,0 -71.6020184,10.6540215,0 -71.6019346,10.6540788,0 -71.6018948,10.6541976,0 -71.6016729,10.6544185,0 -71.6016062,10.6545964,0 -71.6016022,10.6550165,0 -71.6015537,10.6553631,0 -71.6015146,10.6560941,0 -71.6016864,10.6561477,0</coordinates></LinearRing></outerBoundaryIs></Polygon></Placemark>
<Placemark><name>3</name><Point><coordinates>-71.6038995,10.6548807,0</coordinates></Point></Placemark>
<Placemark><name>Zona 4</name><description></description><styleUrl>#z4</styleUrl><Polygon><tessellate>1</tessellate><outerBoundaryIs><LinearRing><coordinates>-71.6013875,10.6561260,0 -71.6015004,10.6560936,0 -71.6015395,10.6553626,0 -71.6015879,10.6550160,0 -71.6015798,10.6546796,0 -71.6016181,10.6545008,0 -71.6016587,10.6544180,0 -71.6018946,10.6541856,0 -71.6019067,10.6541019,0 -71.6020454,10.6539623,0 -71.6020852,10.6538436,0 -71.6021690,10.6537863,0 -71.6024423,10.6533389,0 -71.6024545,10.6532553,0 -71.6015497,10.6528538,0 -71.6011052,10.6526834,0 -71.6005617,10.6525337,0 -71.6004180,10.6524691,0 -71.6002611,10.6524400,0 -71.5998023,10.6522691,0 -71.5997608,10.6523157,0 -71.5997275,10.6526988,0 -71.5996883,10.6528416,0 -71.5997017,10.6533943,0 -71.5996774,10.6535616,0 -71.5996359,10.6536083,0 -71.5996136,10.6538597,0 -71.5996185,10.6540639,0 -71.5996490,10.6541489,0 -71.5996412,10.6544128,0 -71.5997399,10.6549682,0 -71.5998162,10.6551868,0 -71.5999950,10.6555287,0 -71.6001024,10.6558563,0 -71.6001195,10.6559769,0 -71.6000931,10.6560601,0 -71.6009320,10.6560873,0 -71.6013875,10.6561260,0</coordinates></LinearRing></outerBoundaryIs></Polygon></Placemark>
<Placemark><name>4</name><Point><coordinates>-71.6007024,10.6542851,0</coordinates></Point></Placemark>
<Placemark><name>Zona 5</name><description></description><styleUrl>#z5</styleUrl><Polygon><tessellate>1</tessellate><outerBoundaryIs><LinearRing><coordinates>-71.5986785,10.6609965,0 -71.5987742,10.6608436,0 -71.5988003,10.6607484,0 -71.5989107,10.6594434,0 -71.5989481,10.6592285,0 -71.5990157,10.6590866,0 -71.5990128,10.6589665,0 -71.5991498,10.6587548,0 -71.5991466,10.6586226,0 -71.5990186,10.6586185,0 -71.5989060,10.6586629,0 -71.5978391,10.6586044,0 -71.5969265,10.6584668,0 -71.5967687,10.6584016,0 -71.5963407,10.6583278,0 -71.5960285,10.6583417,0 -71.5955160,10.6583011,0 -71.5954809,10.6586121,0 -71.5953075,10.6590747,0 -71.5946028,10.6604805,0 -71.5948191,10.6617770,0 -71.5950140,10.6619052,0 -71.5953922,10.6620975,0 -71.5957691,10.6621825,0 -71.5961989,10.6622032,0 -71.5965740,10.6621490,0 -71.5968410,10.6620306,0 -71.5971613,10.6618800,0 -71.5974273,10.6616866,0 -71.5977478,10.6615574,0 -71.5979951,10.6615784,0 -71.5982333,10.6617388,0 -71.5984514,10.6620063,0 -71.5986997,10.6621131,0 -71.5986785,10.6609965,0</coordinates></LinearRing></outerBoundaryIs></Polygon></Placemark>
<Placemark><name>5</name><Point><coordinates>-71.5968152,10.6602514,0</coordinates></Point></Placemark>
<Placemark><name>Zona 6</name><description>Zona 6: tramo al sur de la Calle 86 trazado a mano (aproximado)</description><styleUrl>#z6</styleUrl><Polygon><tessellate>1</tessellate><outerBoundaryIs><LinearRing><coordinates>-71.5997881,10.6522686,0 -71.5997155,10.6522062,0 -71.5996009,10.6521665,0 -71.5992681,10.6519156,0 -71.5990232,10.6517757,0 -71.5988656,10.6517225,0 -71.5987208,10.6516098,0 -71.5984054,10.6514916,0 -71.5980604,10.6513243,0 -71.5980919,10.6510234,0 -71.5980654,10.6509598,0 -71.5981360,10.6508275,0 -71.5982872,10.6506688,0 -71.5984331,10.6504942,0 -71.5985680,10.6503673,0 -71.5987137,10.6502297,0 -71.5988381,10.6500604,0 -71.5989676,10.6499546,0 -71.5990970,10.6498488,0 -71.5992263,10.6497536,0 -71.5993661,10.6497008,0 -71.5994840,10.6497273,0 -71.5996123,10.6497857,0 -71.5997190,10.6498863,0 -71.5998149,10.6500029,0 -71.5999000,10.6501194,0 -71.5999745,10.6502148,0 -71.6000920,10.6502943,0 -71.6001988,10.6503790,0 -71.6002412,10.6504532,0 -71.6003912,10.6504956,0 -71.6005678,10.6505646,0 -71.6007015,10.6506335,0 -71.6007977,10.6506971,0 -71.6008188,10.6507501,0 -71.6007372,10.6509353,0 -71.6006443,10.6511999,0 -71.6005460,10.6514910,0 -71.6004863,10.6515969,0 -71.6005282,10.6517557,0 -71.6005481,10.6520099,0 -71.6005576,10.6522216,0 -71.6005617,10.6525337,0 -71.6004180,10.6524691,0 -71.6002611,10.6524400,0 -71.5998023,10.6522691,0 -71.5997881,10.6522686,0</coordinates></LinearRing></outerBoundaryIs></Polygon></Placemark>
<Placemark><name>6</name><Point><coordinates>-71.5996227,10.6509847,0</coordinates></Point></Placemark>
<Placemark><name>Zona 7</name><description></description><styleUrl>#z7</styleUrl><Polygon><tessellate>1</tessellate><outerBoundaryIs><LinearRing><coordinates>-71.5991147,10.6561365,0 -71.5996532,10.6560819,0 -71.5999942,10.6560809,0 -71.6000789,10.6560597,0 -71.6001053,10.6559765,0 -71.5999808,10.6555283,0 -71.5998020,10.6551863,0 -71.5997103,10.6549192,0 -71.5996249,10.6543282,0 -71.5996348,10.6541485,0 -71.5996043,10.6540634,0 -71.5995993,10.6538592,0 -71.5996220,10.6536198,0 -71.5996632,10.6535611,0 -71.5996875,10.6533938,0 -71.5996869,10.6527816,0 -71.5997222,10.6524826,0 -71.5997466,10.6523153,0 -71.5997881,10.6522686,0 -71.5997155,10.6522062,0 -71.5996009,10.6521665,0 -71.5992681,10.6519156,0 -71.5990232,10.6517757,0 -71.5988656,10.6517225,0 -71.5987208,10.6516098,0 -71.5984054,10.6514916,0 -71.5980604,10.6513243,0 -71.5978793,10.6514745,0 -71.5971222,10.6536470,0 -71.5970606,10.6552057,0 -71.5970089,10.6554201,0 -71.5971389,10.6555084,0 -71.5976395,10.6556446,0 -71.5977976,10.6557218,0 -71.5980120,10.6557767,0 -71.5984424,10.6559467,0 -71.5987427,10.6560284,0 -71.5988991,10.6560335,0 -71.5990433,10.6561222,0 -71.5991147,10.6561365,0</coordinates></LinearRing></outerBoundaryIs></Polygon></Placemark>
<Placemark><name>7</name><Point><coordinates>-71.5983626,10.6537532,0</coordinates></Point></Placemark>
<Placemark><name>Zona 8</name><description></description><styleUrl>#z8</styleUrl><Polygon><tessellate>1</tessellate><outerBoundaryIs><LinearRing><coordinates>-71.5989057,10.6586509,0 -71.5990467,10.6586074,0 -71.5991608,10.6586231,0 -71.5992571,10.6584942,0 -71.5991477,10.6580824,0 -71.5991381,10.6576860,0 -71.5991064,10.6575529,0 -71.5991264,10.6572054,0 -71.5990657,10.6570473,0 -71.5990860,10.6567118,0 -71.5990308,10.6561938,0 -71.5990578,10.6561347,0 -71.5988849,10.6560330,0 -71.5987430,10.6560405,0 -71.5984427,10.6559587,0 -71.5980123,10.6557887,0 -71.5977979,10.6557338,0 -71.5976398,10.6556566,0 -71.5971392,10.6555204,0 -71.5970092,10.6554321,0 -71.5967867,10.6562173,0 -71.5967458,10.6562880,0 -71.5965535,10.6565579,0 -71.5963727,10.6567201,0 -71.5957220,10.6574194,0 -71.5956126,10.6575959,0 -71.5955105,10.6580728,0 -71.5955157,10.6582891,0 -71.5957574,10.6582969,0 -71.5958860,10.6583251,0 -71.5963404,10.6583158,0 -71.5967684,10.6583896,0 -71.5969262,10.6584548,0 -71.5976963,10.6585757,0 -71.5989057,10.6586509,0</coordinates></LinearRing></outerBoundaryIs></Polygon></Placemark>
<Placemark><name>8</name><Point><coordinates>-71.5975907,10.6570777,0</coordinates></Point></Placemark>
<Placemark><name>Parroquia San Benito de Palermo</name><styleUrl>#tem</styleUrl><Point><coordinates>-71.6019069,10.6548424,0</coordinates></Point></Placemark>
</Document></kml>